OPTICUBE 04             
1 41851U 16067D   26068.51005515  .00003771  00000+0  24102-3 0  9992
2 41851  98.0811 275.5525 0017089  94.6311 265.6869 15.09188144510131
STARLINK-4512           
1 53398U 22097L   26068.41431080  .00000043  00000+0  20778-4 0  9995
2 53398  53.2172 125.3581 0001372  91.9558 268.1591 15.08840498198473
